EUTELSAT 7C             
1 44334U 19034B   26064.12058863  .00000039  00000+0  00000+0 0  9996
2 44334   0.0718 178.1433 0003280 153.1021 241.9864  1.00270612  5793
BEIDOU-3 IGSO-2         
1 44337U 19035A   26057.68879618 -.00000176  00000+0  00000+0 0  9995
2 44337  55.2338 159.8353 0038734 206.4752 153.7223  1.00247364 24561
MERIDIAN 8              
1 44453U 19046A   26062.04366874 -.00000072  00000+0  00000+0 0  9992
2 44453  63.0175  64.3280 7041950 274.5643  15.0735  2.00622693 48210
COSMOS 2539             
1 44457U 19048A   26064.22907046  .00000073  00000+0  00000+0 0  9992
2 44457   0.0186 111.8415 0000623 252.9215 252.6553  1.00275091 24187
BREEZE-M R/B            
1 44458U 19048B   26063.59209864 -.00000161  00000+0  00000+0 0  9994
2 44458   6.5921  73.9678 0733818 127.4387 239.7603  0.90283187 21610
EDRS-C                  
1 44475U 19049A   26064.25489724 -.00000271  00000+0  00000+0 0  9995
2 44475   0.0327 119.0948 0001300 233.8617  44.2860  1.00271980 24169
INTELSAT 39 (IS-39)     
1 44476U 19049B   26064.24142066  .00000000  00000+0  00000+0 0  9999
2 44476   0.0243 150.8895 0000710 354.7393 166.2070  1.00269573 24083
AMOS-17                 
1 44479U 19050A   26064.23002380  .00000100  00000+0  00000+0 0  9998
2 44479   0.0460 291.0471 0001438  53.5443 278.1492  1.00271626 24143
AEHF-5 (USA 292)        
1 44481U 19051A   26064.03103624 -.00000267  00000+0  00000+0 0  9998
2 44481   1.5625 328.7610 0071551   3.3137 294.9545  1.00272011 24216
CZ-3C DEB               
1 44527U 10057BM  26057.19901148  .00000044  00000+0 -16975-3 0  9997
2 44527  20.0244 102.4588 7187168 154.5844 273.2307  2.23732102 75922
COSMOS 2541             
1 44552U 19065A   26064.09591340 -.00000003  00000+0  00000+0 0  9992
2 44552  62.7150 166.6245 6479331 272.2049  20.4086  2.00629045 47135
FREGAT R/B              
1 44553U 19065B   26054.17014682 -.00000490  00000+0  00000+0 0  9990
2 44553  63.3412 164.8850 6678972 261.4686  23.5611  2.01529030 47205
COSMOS 1897 DEB         
1 44572U 87096G   26062.41012252  .00000075  00000+0  00000+0 0  9995
2 44572  11.0154 327.0067 0023130 298.5587 258.8720  1.00472852 69921
ARIANE 44LP DEB         
1 44573U 92060J   26063.62252655  .00000886  00000+0  11541-1 0  9994
2 44573   7.1909   7.9349 7191740 321.0020  83.6592  2.23470732 97201
LUCH DEB                
1 44582U 94082G   26062.81596193 -.00000238  00000+0  00000+0 0  9996
2 44582  14.6056 354.8501 0016547  88.2846  90.4887  1.00702749 45186
SL-12 DEB               
1 44588U 99027E   26063.94178043 -.00000089  00000+0  00000+0 0  9995
2 44588   7.1478 125.2592 3258185 155.7103 302.1021  1.46028123 65533
EUTELSAT 5 WEST B       
1 44624U 19067A   26064.22569044 -.00000051  00000+0  00000+0 0  9998
2 44624   0.0933 311.2659 0003206  42.6829 245.2296  1.00272817 23391
